[{"OBJECT_NAME":"STARLINK-3047","OBJECT_ID":"2021-082AW","EPOCH":"2025-08-05T12:41:25.051488","MEAN_MOTION":15.56498716,"ECCENTRICITY":0.0008155,"INCLINATION":69.9841,"RA_OF_ASC_NODE":49.4407,"ARG_OF_PERICENTER":198.2313,"MEAN_ANOMALY":161.8585,"EPHEMERIS_TYPE":0,"CLASSIFICATION_TYPE":"U","NORAD_CAT_ID":49174,"ELEMENT_SET_NO":999,"REV_AT_EPOCH":21650,"BSTAR":0.001699,"MEAN_MOTION_DOT":0.00122663,"MEAN_MOTION_DDOT":0},{"OBJECT_NAME":"STARLINK-3087","OBJECT_ID":"2021-082AX","EPOCH":"2025-08-05T09:18:21.320064","MEAN_MOTION":14.97524664,"ECCENTRICITY":0.0002836,"INCLINATION":69.9998,"RA_OF_ASC_NODE":100.0672,"ARG_OF_PERICENTER":270.058,"MEAN_ANOMALY":90.0254,"EPHEMERIS_TYPE":0,"CLASSIFICATION_TYPE":"U","NORAD_CAT_ID":49175,"ELEMENT_SET_NO":999,"REV_AT_EPOCH":21406,"BSTAR":3.4488e-5,"MEAN_MOTION_DOT":3.11e-6,"MEAN_MOTION_DDOT":0},{"OBJECT_NAME":"STARLINK-3069","OBJECT_ID":"2021-082AY","EPOCH":"2025-08-05T14:28:31.430784","MEAN_MOTION":14.98335803,"ECCENTRICITY":0.0002688,"INCLINATION":69.9987,"RA_OF_ASC_NODE":79.2839,"ARG_OF_PERICENTER":271.289,"MEAN_ANOMALY":88.7961,"EPHEMERIS_TYPE":0,"CLASSIFICATION_TYPE":"U","NORAD_CAT_ID":49176,"ELEMENT_SET_NO":999,"REV_AT_EPOCH":21459,"BSTAR":6.496e-5,"MEAN_MOTION_DOT":6.82e-6,"MEAN_MOTION_DDOT":0},{"OBJECT_NAME":"STARLINK-3103","OBJECT_ID":"2021-082AZ","EPOCH":"2025-08-05T14:58:32.902752","MEAN_MOTION":14.98329994,"ECCENTRICITY":0.0002319,"INCLINATION":69.9992,"RA_OF_ASC_NODE":79.243,"ARG_OF_PERICENTER":269.5692,"MEAN_ANOMALY":90.5201,"EPHEMERIS_TYPE":0,"CLASSIFICATION_TYPE":"U","NORAD_CAT_ID":49177,"ELEMENT_SET_NO":999,"REV_AT_EPOCH":21579,"BSTAR":4.5394e-5,"MEAN_MOTION_DOT":4.49e-6,"MEAN_MOTION_DDOT":0},{"OBJECT_NAME":"STARLINK-3086","OBJECT_ID":"2021-082BA","EPOCH":"2025-08-05T10:46:51.704256","MEAN_MOTION":14.98330027,"ECCENTRICITY":0.0002876,"INCLINATION":70.0007,"RA_OF_ASC_NODE":119.6649,"ARG_OF_PERICENTER":270.053,"MEAN_ANOMALY":90.03,"EPHEMERIS_TYPE":0,"CLASSIFICATION_TYPE":"U","NORAD_CAT_ID":49178,"ELEMENT_SET_NO":999,"REV_AT_EPOCH":21474,"BSTAR":1.0941e-5,"MEAN_MOTION_DOT":3.8e-7,"MEAN_MOTION_DDOT":0},{"OBJECT_NAME":"STARLINK-3043","OBJECT_ID":"2021-082BB","EPOCH":"2025-08-05T14:40:31.202400","MEAN_MOTION":14.9833078,"ECCENTRICITY":0.0002893,"INCLINATION":69.9996,"RA_OF_ASC_NODE":79.2563,"ARG_OF_PERICENTER":269.3576,"MEAN_ANOMALY":90.7252,"EPHEMERIS_TYPE":0,"CLASSIFICATION_TYPE":"U","NORAD_CAT_ID":49179,"ELEMENT_SET_NO":999,"REV_AT_EPOCH":21459,"BSTAR":1.5176e-5,"MEAN_MOTION_DOT":8.8e-7,"MEAN_MOTION_DDOT":0},{"OBJECT_NAME":"STARLINK-3050","OBJECT_ID":"2021-082BC","EPOCH":"2025-08-05T14:00:01.999872","MEAN_MOTION":14.98303495,"ECCENTRICITY":0.0003049,"INCLINATION":70.0018,"RA_OF_ASC_NODE":99.3355,"ARG_OF_PERICENTER":266.685,"MEAN_ANOMALY":30.541,"EPHEMERIS_TYPE":0,"CLASSIFICATION_TYPE":"U","NORAD_CAT_ID":49180,"ELEMENT_SET_NO":999,"REV_AT_EPOCH":581,"BSTAR":0.0049369,"MEAN_MOTION_DOT":0.00059274,"MEAN_MOTION_DDOT":0},{"OBJECT_NAME":"STARLINK-3059","OBJECT_ID":"2021-082BD","EPOCH":"2025-08-05T10:22:49.552608","MEAN_MOTION":14.98330886,"ECCENTRICITY":0.0002919,"INCLINATION":70.0008,"RA_OF_ASC_NODE":119.7201,"ARG_OF_PERICENTER":271.7975,"MEAN_ANOMALY":88.2849,"EPHEMERIS_TYPE":0,"CLASSIFICATION_TYPE":"U","NORAD_CAT_ID":49181,"ELEMENT_SET_NO":999,"REV_AT_EPOCH":21477,"BSTAR":3.9668e-5,"MEAN_MOTION_DOT":3.8e-6,"MEAN_MOTION_DDOT":0},{"OBJECT_NAME":"STARLINK-3151","OBJECT_ID":"2021-104A","EPOCH":"2025-08-05T10:32:14.467776","MEAN_MOTION":15.08836357,"ECCENTRICITY":0.0001429,"INCLINATION":53.2201,"RA_OF_ASC_NODE":119.9385,"ARG_OF_PERICENTER":90.5401,"MEAN_ANOMALY":269.5755,"EPHEMERIS_TYPE":0,"CLASSIFICATION_TYPE":"U","NORAD_CAT_ID":49408,"ELEMENT_SET_NO":999,"REV_AT_EPOCH":20598,"BSTAR":1.303e-5,"MEAN_MOTION_DOT":-8.1e-7,"MEAN_MOTION_DDOT":0},{"OBJECT_NAME":"STARLINK-3075","OBJECT_ID":"2021-104B","EPOCH":"2025-08-05T02:55:07.332096","MEAN_MOTION":15.08841305,"ECCENTRICITY":0.0001321,"INCLINATION":53.2167,"RA_OF_ASC_NODE":121.3364,"ARG_OF_PERICENTER":93.3869,"MEAN_ANOMALY":266.7274,"EPHEMERIS_TYPE":0,"CLASSIFICATION_TYPE":"U","NORAD_CAT_ID":49409,"ELEMENT_SET_NO":999,"REV_AT_EPOCH":20594,"BSTAR":2.174e-5,"MEAN_MOTION_DOT":5.8e-7,"MEAN_MOTION_DDOT":0},{"OBJECT_NAME":"STARLINK-3147","OBJECT_ID":"2021-104C","EPOCH":"2025-08-05T10:42:49.849056","MEAN_MOTION":15.08839392,"ECCENTRICITY":0.0001415,"INCLINATION":53.2167,"RA_OF_ASC_NODE":119.8848,"ARG_OF_PERICENTER":80.7449,"MEAN_ANOMALY":279.3703,"EPHEMERIS_TYPE":0,"CLASSIFICATION_TYPE":"U","NORAD_CAT_ID":49410,"ELEMENT_SET_NO":999,"REV_AT_EPOCH":20598,"BSTAR":5.8734e-5,"MEAN_MOTION_DOT":6.47e-6,"MEAN_MOTION_DDOT":0},{"OBJECT_NAME":"STARLINK-3162","OBJECT_ID":"2021-104D","EPOCH":"2025-08-05T10:32:11.056704","MEAN_MOTION":15.08837291,"ECCENTRICITY":0.0001243,"INCLINATION":53.2168,"RA_OF_ASC_NODE":109.9106,"ARG_OF_PERICENTER":89.5142,"MEAN_ANOMALY":270.5993,"EPHEMERIS_TYPE":0,"CLASSIFICATION_TYPE":"U","NORAD_CAT_ID":49411,"ELEMENT_SET_NO":999,"REV_AT_EPOCH":20612,"BSTAR":-1.0624e-5,"MEAN_MOTION_DOT":-4.57e-6,"MEAN_MOTION_DDOT":0},{"OBJECT_NAME":"STARLINK-3157","OBJECT_ID":"2021-104F","EPOCH":"2025-08-05T10:28:15.721248","MEAN_MOTION":15.08845144,"ECCENTRICITY":0.0001165,"INCLINATION":53.2175,"RA_OF_ASC_NODE":109.9339,"ARG_OF_PERICENTER":85.243,"MEAN_ANOMALY":274.8695,"EPHEMERIS_TYPE":0,"CLASSIFICATION_TYPE":"U","NORAD_CAT_ID":49413,"ELEMENT_SET_NO":999,"REV_AT_EPOCH":20612,"BSTAR":0.00014487,"MEAN_MOTION_DOT":2.019e-5,"MEAN_MOTION_DDOT":0},{"OBJECT_NAME":"STARLINK-3146","OBJECT_ID":"2021-104G","EPOCH":"2025-08-05T10:36:09.632160","MEAN_MOTION":15.08834942,"ECCENTRICITY":0.0001506,"INCLINATION":53.2182,"RA_OF_ASC_NODE":119.8976,"ARG_OF_PERICENTER":91.8305,"MEAN_ANOMALY":268.2859,"EPHEMERIS_TYPE":0,"CLASSIFICATION_TYPE":"U","NORAD_CAT_ID":49414,"ELEMENT_SET_NO":999,"REV_AT_EPOCH":20598,"BSTAR":1.634e-5,"MEAN_MOTION_DOT":-2.8e-7,"MEAN_MOTION_DDOT":0},{"OBJECT_NAME":"STARLINK-3159","OBJECT_ID":"2021-104H","EPOCH":"2025-08-05T10:21:35.182944","MEAN_MOTION":15.0885616,"ECCENTRICITY":0.0001337,"INCLINATION":53.218,"RA_OF_ASC_NODE":109.9457,"ARG_OF_PERICENTER":89.0818,"MEAN_ANOMALY":271.0328,"EPHEMERIS_TYPE":0,"CLASSIFICATION_TYPE":"U","NORAD_CAT_ID":49415,"ELEMENT_SET_NO":999,"REV_AT_EPOCH":20611,"BSTAR":-1.3645e-5,"MEAN_MOTION_DOT":-5.05e-6,"MEAN_MOTION_DDOT":0},{"OBJECT_NAME":"STARLINK-3133","OBJECT_ID":"2021-104J","EPOCH":"2025-08-05T10:25:33.224448","MEAN_MOTION":15.08837913,"ECCENTRICITY":0.0001262,"INCLINATION":53.2167,"RA_OF_ASC_NODE":119.9271,"ARG_OF_PERICENTER":85.5901,"MEAN_ANOMALY":274.5235,"EPHEMERIS_TYPE":0,"CLASSIFICATION_TYPE":"U","NORAD_CAT_ID":49416,"ELEMENT_SET_NO":999,"REV_AT_EPOCH":20598,"BSTAR":-6.8443e-7,"MEAN_MOTION_DOT":-2.99e-6,"MEAN_MOTION_DDOT":0},{"OBJECT_NAME":"STARLINK-3154","OBJECT_ID":"2021-104K","EPOCH":"2025-08-05T09:28:31.604736","MEAN_MOTION":15.08839897,"ECCENTRICITY":0.00015,"INCLINATION":53.2192,"RA_OF_ASC_NODE":109.7622,"ARG_OF_PERICENTER":91.393,"MEAN_ANOMALY":268.7234,"EPHEMERIS_TYPE":0,"CLASSIFICATION_TYPE":"U","NORAD_CAT_ID":49417,"ELEMENT_SET_NO":999,"REV_AT_EPOCH":20611,"BSTAR":7.2977e-6,"MEAN_MOTION_DOT":-1.72e-6,"MEAN_MOTION_DDOT":0},{"OBJECT_NAME":"STARLINK-3111","OBJECT_ID":"2021-104L","EPOCH":"2025-08-05T00:47:56.264640","MEAN_MOTION":15.08840074,"ECCENTRICITY":0.0001309,"INCLINATION":53.2168,"RA_OF_ASC_NODE":121.7284,"ARG_OF_PERICENTER":91.0449,"MEAN_ANOMALY":269.0693,"EPHEMERIS_TYPE":0,"CLASSIFICATION_TYPE":"U","NORAD_CAT_ID":49418,"ELEMENT_SET_NO":999,"REV_AT_EPOCH":20591,"BSTAR":5.2847e-5,"MEAN_MOTION_DOT":5.53e-6,"MEAN_MOTION_DDOT":0},{"OBJECT_NAME":"STARLINK-3120","OBJECT_ID":"2021-104M","EPOCH":"2025-08-05T10:04:21.478656","MEAN_MOTION":15.08838382,"ECCENTRICITY":0.0001598,"INCLINATION":53.2181,"RA_OF_ASC_NODE":119.9927,"ARG_OF_PERICENTER":95.2934,"MEAN_ANOMALY":264.8241,"EPHEMERIS_TYPE":0,"CLASSIFICATION_TYPE":"U","NORAD_CAT_ID":49419,"ELEMENT_SET_NO":999,"REV_AT_EPOCH":20597,"BSTAR":1.8755e-5,"MEAN_MOTION_DOT":1.0e-7,"MEAN_MOTION_DDOT":0},{"OBJECT_NAME":"STARLINK-3110","OBJECT_ID":"2021-104N","EPOCH":"2025-08-05T10:14:56.019264","MEAN_MOTION":15.08854114,"ECCENTRICITY":0.0001226,"INCLINATION":53.2192,"RA_OF_ASC_NODE":119.9619,"ARG_OF_PERICENTER":93.392,"MEAN_ANOMALY":266.7213,"EPHEMERIS_TYPE":0,"CLASSIFICATION_TYPE":"U","NORAD_CAT_ID":49420,"ELEMENT_SET_NO":999,"REV_AT_EPOCH":20597,"BSTAR":0.00016185,"MEAN_MOTION_DOT":2.29e-5,"MEAN_MOTION_DDOT":0},{"OBJECT_NAME":"STARLINK-3112","OBJECT_ID":"2021-104P","EPOCH":"2025-08-04T03:14:54.476736","MEAN_MOTION":15.08836563,"ECCENTRICITY":0.0001436,"INCLINATION":53.2177,"RA_OF_ASC_NODE":125.5693,"ARG_OF_PERICENTER":81.9084,"MEAN_ANOMALY":278.2071,"EPHEMERIS_TYPE":0,"CLASSIFICATION_TYPE":"U","NORAD_CAT_ID":49421,"ELEMENT_SET_NO":999,"REV_AT_EPOCH":20578,"BSTAR":1.8881e-5,"MEAN_MOTION_DOT":1.3e-7,"MEAN_MOTION_DDOT":0},{"OBJECT_NAME":"STARLINK-3161","OBJECT_ID":"2021-104Q","EPOCH":"2025-08-05T02:56:33.584352","MEAN_MOTION":15.08831686,"ECCENTRICITY":0.0001324,"INCLINATION":53.2168,"RA_OF_ASC_NODE":121.6509,"ARG_OF_PERICENTER":83.5145,"MEAN_ANOMALY":276.5998,"EPHEMERIS_TYPE":0,"CLASSIFICATION_TYPE":"U","NORAD_CAT_ID":49422,"ELEMENT_SET_NO":999,"REV_AT_EPOCH":20592,"BSTAR":-4.4595e-6,"MEAN_MOTION_DOT":-3.59e-6,"MEAN_MOTION_DDOT":0},{"OBJECT_NAME":"STARLINK-3149","OBJECT_ID":"2021-104R","EPOCH":"2025-08-05T10:09:41.690880","MEAN_MOTION":15.0883681,"ECCENTRICITY":0.0001651,"INCLINATION":53.2168,"RA_OF_ASC_NODE":120.169,"ARG_OF_PERICENTER":90.1374,"MEAN_ANOMALY":269.9807,"EPHEMERIS_TYPE":0,"CLASSIFICATION_TYPE":"U","NORAD_CAT_ID":49423,"ELEMENT_SET_NO":999,"REV_AT_EPOCH":20597,"BSTAR":1.0957e-5,"MEAN_MOTION_DOT":-1.14e-6,"MEAN_MOTION_DDOT":0}]
